{"type": "FeatureCollection", "features": [ {"type": "Feature", "properties": {"norad_id": 54234, "name": "NOAA 21 (JPSS-2)", "group": "weather", "lat": -80.58436529250415, "lon": -1.8841198389268934, "alt_km": 834.7723000752267, "timestamp": "2025-12-19T16:54:43.892886+00:00", "meta": {"OBJECT_NAME": "NOAA 21 (JPSS-2)", "OBJECT_ID": "2022-150A", "EPOCH": "2025-12-19T05:28:39.344160", "MEAN_MOTION": 14.1952592, "ECCENTRICITY": 0.00019428, "INCLINATION": 98.747, "RA_OF_ASC_NODE": 289.4557, "ARG_OF_PERICENTER": 25.3373, "MEAN_ANOMALY": 334.7898, "EPHEMERIS_TYPE": 0, "CLASSIFICATION_TYPE": "U", "NORAD_CAT_ID": 54234, "ELEMENT_SET_NO": 999, "REV_AT_EPOCH": 16101, "BSTAR": 4.2984187e-05, "MEAN_MOTION_DOT": 4.7e-07, "MEAN_MOTION_DDOT": 0}, "tle": {"line1": "1 54234U 22150A   25353.22823315  .00000047  00000+0  42984-4 0  9993", "line2": "2 54234  98.7470 289.4557 0001942  25.3373 334.7898 14.19525920161013"}}, "geometry": {"type": "Point", "coordinates": [-1.8841198389268934, -80.58436529250415]}}, {"type": "Feature", "properties": {"norad_id": 54743, "name": "METEOSAT-12 (MTG-I1)", "group": "weather", "lat": -0.47628127436985535, "lon": -18.06325568982459, "alt_km": 35785.182711762005, "timestamp": "2025-12-19T16:54:43.892905+00:00", "meta": {"OBJECT_NAME": "METEOSAT-12 (MTG-I1)", "OBJECT_ID": "2022-170C", "EPOCH": "2025-12-19T06:24:51.136128", "MEAN_MOTION": 1.00270426, "ECCENTRICITY": 0.00014811, "INCLINATION": 0.6935, "RA_OF_ASC_NODE": 24.6802, "ARG_OF_PERICENTER": 239.4026, "MEAN_ANOMALY": 279.9464, "EPHEMERIS_TYPE": 0, "CLASSIFICATION_TYPE": "U", "NORAD_CAT_ID": 54743, "ELEMENT_SET_NO": 999, "REV_AT_EPOCH": 1117, "BSTAR": 0, "MEAN_MOTION_DOT": 1.7e-07, "MEAN_MOTION_DDOT": 0}, "tle": {"line1": "1 54743U 22170C   25353.26725852  .00000017  00000+0  00000+0 0  9996", "line2": "2 54743   0.6935  24.6802 0001481 239.4026 279.9464  1.00270426 11173"}}, "geometry": {"type": "Point", "coordinates": [-18.06325568982459, -0.47628127436985535]}}, {"type": "Feature", "properties": {"norad_id": 55973, "name": "TIANMU-1 03", "group": "weather", "lat": 0.544086004635033, "lon": 156.47949376211798, "alt_km": 443.71603016841163, "timestamp": "2025-12-19T16:54:43.892922+00:00", "meta": {"OBJECT_NAME": "TIANMU-1 03", "OBJECT_ID": "2023-039A", "EPOCH": "2025-12-19T06:00:05.457888", "MEAN_MOTION": 15.41105682, "ECCENTRICITY": 0.00041116, "INCLINATION": 97.5101, "RA_OF_ASC_NODE": 156.084, "ARG_OF_PERICENTER": 42.5762, "MEAN_ANOMALY": 317.5802, "EPHEMERIS_TYPE": 0, "CLASSIFICATION_TYPE": "U", "NORAD_CAT_ID": 55973, "ELEMENT_SET_NO": 999, "REV_AT_EPOCH": 15306, "BSTAR": 0.00028272684, "MEAN_MOTION_DOT": 0.00011617, "MEAN_MOTION_DDOT": 0}, "tle": {"line1": "1 55973U 23039A   25353.25006317  .00011617  00000+0  28273-3 0  9998", "line2": "2 55973  97.5101 156.0840 0004111  42.5762 317.5802 15.41105682153065"}}, "geometry": {"type": "Point", "coordinates": [156.47949376211798, 0.544086004635033]}}, {"type": "Feature", "properties": {"norad_id": 55974, "name": "TIANMU-1 04", "group": "weather", "lat": 55.98912200179046, "lon": -12.996446264917614, "alt_km": 436.41133013197305, "timestamp": "2025-12-19T16:54:43.892941+00:00", "meta": {"OBJECT_NAME": "TIANMU-1 04", "OBJECT_ID": "2023-039B", "EPOCH": "2025-12-19T07:01:55.172352", "MEAN_MOTION": 15.4144785, "ECCENTRICITY": 0.00047566, "INCLINATION": 97.5034, "RA_OF_ASC_NODE": 155.3165, "ARG_OF_PERICENTER": 36.3626, "MEAN_ANOMALY": 323.7943, "EPHEMERIS_TYPE": 0, "CLASSIFICATION_TYPE": "U", "NORAD_CAT_ID": 55974, "ELEMENT_SET_NO": 999, "REV_AT_EPOCH": 15307, "BSTAR": 0.00028692854, "MEAN_MOTION_DOT": 0.00011928, "MEAN_MOTION_DDOT": 0}, "tle": {"line1": "1 55974U 23039B   25353.29299968  .00011928  00000+0  28693-3 0  9990", "line2": "2 55974  97.5034 155.3165 0004756  36.3626 323.7943 15.41447850153070"}}, "geometry": {"type": "Point", "coordinates": [-12.996446264917614, 55.98912200179046]}}, {"type": "Feature", "properties": {"norad_id": 55975, "name": "TIANMU-1 05", "group": "weather", "lat": 34.018048079056946, "lon": -18.66064239285184, "alt_km": 440.69691653625887, "timestamp": "2025-12-19T16:54:43.892958+00:00", "meta": {"OBJECT_NAME": "TIANMU-1 05", "OBJECT_ID": "2023-039C", "EPOCH": "2025-12-19T06:55:58.194336", "MEAN_MOTION": 15.41064434, "ECCENTRICITY": 0.00041796, "INCLINATION": 97.5081, "RA_OF_ASC_NODE": 155.8048, "ARG_OF_PERICENTER": 60.2987, "MEAN_ANOMALY": 299.8675, "EPHEMERIS_TYPE": 0, "CLASSIFICATION_TYPE": "U", "NORAD_CAT_ID": 55975, "ELEMENT_SET_NO": 999, "REV_AT_EPOCH": 15305, "BSTAR": 0.00029029538, "MEAN_MOTION_DOT": 0.00011915, "MEAN_MOTION_DDOT": 0}, "tle": {"line1": "1 55975U 23039C   25353.28886799  .00011915  00000+0  29030-3 0  9996", "line2": "2 55975  97.5081 155.8048 0004179  60.2987 299.8675 15.41064434153059"}}, "geometry": {"type": "Point", "coordinates": [-18.66064239285184, 34.018048079056946]}}, {"type": "Feature", "properties": {"norad_id": 55976, "name": "TIANMU-1 06", "group": "weather", "lat": 66.35563785132723, "lon": -5.761890171241713, "alt_km": 433.64673009301623, "timestamp": "2025-12-19T16:54:43.892974+00:00", "meta": {"OBJECT_NAME": "TIANMU-1 06", "OBJECT_ID": "2023-039D", "EPOCH": "2025-12-19T07:04:44.080896", "MEAN_MOTION": 15.41499573, "ECCENTRICITY": 0.00044578, "INCLINATION": 97.5092, "RA_OF_ASC_NODE": 156.2815, "ARG_OF_PERICENTER": 54.8812, "MEAN_ANOMALY": 305.2852, "EPHEMERIS_TYPE": 0, "CLASSIFICATION_TYPE": "U", "NORAD_CAT_ID": 55976, "ELEMENT_SET_NO": 999, "REV_AT_EPOCH": 15307, "BSTAR": 0.00028724611, "MEAN_MOTION_DOT": 0.00011961, "MEAN_MOTION_DDOT": 0}, "tle": {"line1": "1 55976U 23039D   25353.29495464  .00011961  00000+0  28725-3 0  9994", "line2": "2 55976  97.5092 156.2815 0004457  54.8812 305.2852 15.41499573153071"}}, "geometry": {"type": "Point", "coordinates": [-5.761890171241713, 66.35563785132723]}}, {"type": "Feature", "properties": {"norad_id": 56232, "name": "FENGYUN 3G", "group": "weather", "lat": -13.970340200546874, "lon": 23.56164526127822, "alt_km": 401.118386219302, "timestamp": "2025-12-19T16:54:43.892990+00:00", "meta": {"OBJECT_NAME": "FENGYUN 3G", "OBJECT_ID": "2023-055A", "EPOCH": "2025-12-19T03:43:02.160768", "MEAN_MOTION": 15.54016382, "ECCENTRICITY": 0.00093116, "INCLINATION": 49.992, "RA_OF_ASC_NODE": 194.3407, "ARG_OF_PERICENTER": 177.5614, "MEAN_ANOMALY": 182.5401, "EPHEMERIS_TYPE": 0, "CLASSIFICATION_TYPE": "U", "NORAD_CAT_ID": 56232, "ELEMENT_SET_NO": 999, "REV_AT_EPOCH": 15202, "BSTAR": 0.00037969333, "MEAN_MOTION_DOT": 0.00024711, "MEAN_MOTION_DDOT": 0}, "tle": {"line1": "1 56232U 23055A   25353.15488612  .00024711  00000+0  37969-3 0  9997", "line2": "2 56232  49.9920 194.3407 0009311 177.5614 182.5401 15.54016382152022"}}, "geometry": {"type": "Point", "coordinates": [23.56164526127822, -13.970340200546874]}}, {"type": "Feature", "properties": {"norad_id": 57166, "name": "METEOR-M2 3", "group": "weather", "lat": -65.83752702663959, "lon": 66.9255459977052, "alt_km": 817.536086795747, "timestamp": "2025-12-19T16:54:43.893009+00:00", "meta": {"OBJECT_NAME": "METEOR-M2 3", "OBJECT_ID": "2023-091A", "EPOCH": "2025-12-19T07:06:35.618112", "MEAN_MOTION": 14.24026827, "ECCENTRICITY": 0.00035269, "INCLINATION": 98.637, "RA_OF_ASC_NODE": 46.7209, "ARG_OF_PERICENTER": 349.4144, "MEAN_ANOMALY": 10.696, "EPHEMERIS_TYPE": 0, "CLASSIFICATION_TYPE": "U", "NORAD_CAT_ID": 57166, "ELEMENT_SET_NO": 999, "REV_AT_EPOCH": 12891, "BSTAR": 2.4762841e-05, "MEAN_MOTION_DOT": 1.3e-07, "MEAN_MOTION_DDOT": 0}, "tle": {"line1": "1 57166U 23091A   25353.29624558  .00000013  00000+0  24763-4 0  9998", "line2": "2 57166  98.6370  46.7209 0003526 349.4144  10.6960 14.24026827128912"}}, "geometry": {"type": "Point", "coordinates": [66.9255459977052, -65.83752702663959]}}, {"type": "Feature", "properties": {"norad_id": 57399, "name": "TIANMU-1 07", "group": "weather", "lat": -25.319703603774087, "lon": -140.06955920017617, "alt_km": 489.8913811296352, "timestamp": "2025-12-19T16:54:43.893025+00:00", "meta": {"OBJECT_NAME": "TIANMU-1 07", "OBJECT_ID": "2023-101A", "EPOCH": "2025-12-19T08:09:31.533120", "MEAN_MOTION": 15.28161413, "ECCENTRICITY": 0.00053399, "INCLINATION": 97.287, "RA_OF_ASC_NODE": 43.0446, "ARG_OF_PERICENTER": 64.9804, "MEAN_ANOMALY": 295.199, "EPHEMERIS_TYPE": 0, "CLASSIFICATION_TYPE": "U", "NORAD_CAT_ID": 57399, "ELEMENT_SET_NO": 999, "REV_AT_EPOCH": 13416, "BSTAR": 0.00019975185, "MEAN_MOTION_DOT": 5.412e-05, "MEAN_MOTION_DDOT": 0}, "tle": {"line1": "1 57399U 23101A   25353.33994830  .00005412  00000+0  19975-3 0  9992", "line2": "2 57399  97.2870  43.0446 0005339  64.9804 295.1990 15.28161413134162"}}, "geometry": {"type": "Point", "coordinates": [-140.06955920017617, -25.319703603774087]}}, {"type": "Feature", "properties": {"norad_id": 57400, "name": "TIANMU-1 08", "group": "weather", "lat": 26.30732696043204, "lon": 39.57152763339176, "alt_km": 476.52623101602785, "timestamp": "2025-12-19T16:54:43.893041+00:00", "meta": {"OBJECT_NAME": "TIANMU-1 08", "OBJECT_ID": "2023-101B", "EPOCH": "2025-12-19T07:22:02.144928", "MEAN_MOTION": 15.28143647, "ECCENTRICITY": 0.00073144, "INCLINATION": 97.2859, "RA_OF_ASC_NODE": 42.8092, "ARG_OF_PERICENTER": 65.5601, "MEAN_ANOMALY": 294.6402, "EPHEMERIS_TYPE": 0, "CLASSIFICATION_TYPE": "U", "NORAD_CAT_ID": 57400, "ELEMENT_SET_NO": 999, "REV_AT_EPOCH": 13415, "BSTAR": 0.00019865477, "MEAN_MOTION_DOT": 5.381e-05, "MEAN_MOTION_DDOT": 0}, "tle": {"line1": "1 57400U 23101B   25353.30696927  .00005381  00000+0  19865-3 0  9991", "line2": "2 57400  97.2859  42.8092 0007314  65.5601 294.6402 15.28143647134153"}}, "geometry": {"type": "Point", "coordinates": [39.57152763339176, 26.30732696043204]}}]}